#aV2015  9 11  0  0  0.00000000     288 DD+AD WGS84 FIT  NGA
## 1861 432000.00000000   300.00000000 57276 0.0000000000000
+   31     1  2  3  4  5  6  7  8  9 11 12 13 14 15 16 17 18
+         19 20 21 22 23 24 25 26 27 28 29 30 31 32  0  0  0
+          0  0  0  0  0  0  0  0  0  0  0  0  0  0  0  0  0
+          0  0  0  0  0  0  0  0  0  0  0  0  0  0  0  0  0
+          0  0  0  0  0  0  0  0  0  0  0  0  0  0  0  0  0
++         2  2  2  2  2  2  2  2  2  2  2  2  2  2  2  2  2
++         2  2  2  2  2  2  2  2  2  2  2  2  2  2  0  0  0
++         0  0  0  0  0  0  0  0  0  0  0  0  0  0  0  0  0
++         0  0  0  0  0  0  0  0  0  0  0  0  0  0  0  0  0
++         0  0  0  0  0  0  0  0  0  0  0  0  0  0  0  0  0
%c cc cc ccc ccc cccc cccc cccc cccc ccccc ccccc ccccc ccccc
%c cc cc ccc ccc cccc cccc cccc cccc ccccc ccccc ccccc ccccc
%f  0.0000000  0.000000000  0.00000000000  0.000000000000000
%f  0.0000000  0.000000000  0.00000000000  0.000000000000000
%i    0    0    0    0      0      0      0      0         0
%i    0    0    0    0      0      0      0      0         0
/*      NGA, ST. LOUIS,MO.                                  
/*   EPHEMERIS COMPUTED FROM  1 DAYS OF DATA                
/*   EPOCHA SMOOTHER                                       
/* CCCCCCCCCCCCCCCCCCCCCCCCCCCCCCCCCCCCCCCCCCCCCCCCCCCCCCCCC
*  2015  9 11  8 25  0.00000000
P  1 -17922.791750 -13478.782923 -14455.235538      0.288700                    
V  1  18202.742291   1368.007127 -23759.476042      0.006705                    
P  2  -5641.361252  15015.377743  21509.774487    588.385497                    
V  2 -26199.083929  -4324.239893  -4360.681235      0.016683                    
P  3 -13483.694561 -21613.825210   7478.580483     20.680870                    
V  3   -721.040317  -9843.121581 -29809.834095      0.009542                    
P  4  -8729.609974 -15963.151618 -19778.979617    -19.388938                    
V  4  24257.223714   2569.473651 -12748.644308     -0.041410                    
P  5    207.447429  23869.915899  11381.642765   -196.720743                    
V  5  -7885.804426 -12674.418515  26782.267996      0.040824                    
P  6 -18191.692490   8960.389066  17146.310192     55.829385                    
V  6 -21164.542999  -5395.203952 -19638.662141      0.074011                    
P  7 -26050.002502  -6092.905203   1234.565591    484.433491                    
V  7   1811.044407  -1893.845698  31631.720762      0.018105                    
P  8  -1134.191306 -18956.076121 -18530.920723     -4.865805                    
V  8  16222.549995 -17230.759438  16579.417574     -0.012773                    
P  9 -17548.107955   -847.059094  19920.580624     -9.820539                    
V  9  15243.232857 -20243.875502  12546.876982      0.013871                    
P 11 -13817.835675 -13098.735954 -19101.467635   -603.504102                    
V 11  22679.319291  -5998.637748 -12563.914056     -0.023374                    
P 12  10897.139227  23793.330092   5050.708093    327.073895                    
V 12    340.193096   6695.706036 -31410.590645      0.034468                    
P 13  -9670.207960  21303.189138 -12812.166172   -148.229249                    
V 13 -12853.633232   9695.874834  25983.139196     -0.029846                    
P 14  21188.809180 -13174.210149  -8622.432471     35.521860                    
V 14  -6032.407858   9960.487760 -29337.392021     -0.026278                    
P 15   3090.097320  18754.767102 -18517.066412   -270.966473                    
V 15 -15756.645602  17593.336064  15596.846737     -0.020603                    
P 16   1276.093423 -23474.903897  11904.634826    -87.773336                    
V 16   6077.312716  14201.364431  27522.316197      0.039981                    
P 17 -20566.471651  14429.636362  -7973.404922   -187.315565                    
V 17   5307.690881  -9489.744460 -29948.616239     -0.013060                    
P 18  17459.603700   5911.408598 -18709.825665    433.069345                    
V 18   7476.290988  23780.573887  13829.740580      0.032652                    
P 19  -6004.946244 -14720.655440 -21444.271515   -519.904310                    
V 19  19529.090558 -18273.066850   7575.428433     -0.006325                    
P 20  13321.255937  22656.127432  -3662.527449    354.357885                    
V 20  -1679.275823   5711.362572  30567.103779      0.030721                    
P 21  26470.433311   3426.798141   -905.364032   -478.866772                    
V 21   1436.568812   3643.905355  30931.720414     -0.028011                    
P 22  13391.603493  -9017.546089 -20836.401272    390.239798                    
V 22  10511.121361  25073.606147  -4224.426362      0.037379                    
P 23  -8609.669864 -13538.600332  21276.642418   -132.545838                    
V 23  17810.088906 -19967.157921  -5975.646795     -0.022122                    
P 24  15514.098242  14202.654319 -16344.308683     -4.482450                    
V 24 -20702.067312  -1295.234813 -20665.289563     -0.006695                    
P 25  16266.089911  14214.319113  15461.213545    -37.222087                    
V 25   5331.052222  19039.384647 -22804.052920     -0.051000                    
P 26   7812.342251 -16938.050889  18901.693106    -49.718827                    
V 26   9658.567880  22028.556571  15749.378423     -0.106290                    
P 27   9978.233294 -22537.530084  -9763.673704     18.818669                    
V 27   9761.424060  -7996.358316  28629.254266      0.029511                    
P 28 -13760.096130   3892.713766 -21762.305110    466.784158                    
V 28  -8028.149768 -27946.294892     -3.431861      0.026942                    
P 29  15837.166513   3903.066140  20966.189461    633.474476                    
V 29 -17583.231830  19922.912141   9616.290531      0.023373                    
P 30 -24703.474076    965.714249  -9822.518326     22.483898                    
V 30 -11441.169573  -5568.268432  28150.584279      0.066890                    
P 31  18099.119801  -8538.347986  17759.806949    303.263968                    
V 31  21419.760060   5702.272976 -18898.671837     -0.013626                    
P 32  -4502.634159 -26221.923273  -3696.394814    -46.723578                    
V 32   3857.876033   3681.382149 -30643.297259      0.110052                    
EOF
